STARLINK-32425          
1 61216U 24171S   26197.11115984  .00000725  00000+0  35114-4 0  9997
2 61216  53.1609  85.7124 0001299  83.7917 276.3232 15.31701316102034
STARLINK-32342          
1 61217U 24171T   26196.97132189  .00000735  00000+0  35450-4 0  9991
2 61217  53.1608  86.2578 0001426  76.2505 283.8656 15.31702742102920
STARLINK-32423          
1 61218U 24171U   26197.10649210  .00000199  00000+0  18183-4 0  9994
2 61218  53.1611  85.6823 0001438  79.8161 280.3002 15.31700326102946
STARLINK-32248          
1 61219U 24171V   26197.68442378 -.00006638  00000+0 -20223-3 0  9997
2 61219  53.1605  82.8848 0002101 125.9920 234.1276 15.31708662103032
STARLINK-11300 [DTC]    
1 61243U 24175A   26197.22210144 -.00001216  00000+0 -51863-5 0  9995
2 61243  53.1584 142.6736 0000812  67.5364 292.5740 15.69713435103552
STARLINK-11276 [DTC]    
1 61244U 24175B   26197.85389045  .00002803  00000+0  28007-4 0  9996
2 61244  53.1602 139.5024 0000869  93.6166 266.4951 15.69688533103656
STARLINK-11280 [DTC]    
1 61245U 24175C   26197.08004853  .00000133  00000+0  59519-5 0  9990
2 61245  53.1595 143.2124 0001035  73.5564 286.5568 15.69708916103538
STARLINK-11308 [DTC]    
1 61246U 24175D   26197.14862119  .00001253  00000+0  15190-4 0  9995
2 61246  53.1595 142.9231 0000573  54.7172 305.3900 15.69706011103541
STARLINK-11305 [DTC]    
1 61247U 24175E   26197.13880725 -.00000216  00000+0  30687-5 0  9996
2 61247  53.1577 142.8578 0000769  91.4911 268.6195 15.69715260103544
STARLINK-11317 [DTC]    
1 61248U 24175F   26197.26124252  .00000256  00000+0  69699-5 0  9995
2 61248  53.1577 142.1932 0001017 110.1723 249.9404 15.69712268103561
STARLINK-11293 [DTC]    
1 61249U 24175G   26197.25634110  .00001426  00000+0  16630-4 0  9990
2 61249  53.1582 142.1628 0000997  80.1562 279.9568 15.69704341103560
STARLINK-11319 [DTC]    
1 61251U 24175J   26197.56502255 -.00007027  00000+0 -53292-4 0  9991
2 61251  53.1592 141.2614 0001222  86.2034 273.9123 15.69663771103609
STARLINK-11318 [DTC]    
1 61252U 24175K   26197.56007449 -.00001765  00000+0 -97189-5 0  9994
2 61252  53.1603 141.2304 0000813  82.8829 277.2281 15.69707107104771
STARLINK-11311 [DTC]    
1 61253U 24175L   26197.55516914 -.00000434  00000+0  12701-5 0  9994
2 61253  53.1594 141.1964 0000770 101.3896 258.7208 15.69709322104814
STARLINK-11306 [DTC]    
1 61254U 24175M   26197.86860554  .00000276  00000+0  71391-5 0  9994
2 61254  53.1585 139.5918 0001029  92.5569 267.5567 15.69706471104853
STARLINK-11313 [DTC]    
1 61255U 24175N   26197.54535620 -.00001171  00000+0 -48106-5 0  9998
2 61255  53.1599 141.1274 0001124  98.4104 261.7041 15.69707922103606
STARLINK-32431          
1 61256U 24175P   26197.75139058  .00004187  00000+0  13497-3 0  9998
2 61256  53.1578 313.1383 0000907  87.3485 272.7621 15.34401142101233
STARLINK-32432          
1 61257U 24175Q   26197.61480115 -.00000983  00000+0 -17973-4 0  9993
2 61257  53.1615 313.7121 0000995 103.9444 256.1670 15.34409781101214
STARLINK-32382          
1 61258U 24175R   26197.60218424  .00000759  00000+0  33599-4 0  9996
2 61258  53.1614 313.6331 0000803  81.9019 278.2075 15.34392386101213
STARLINK-32435          
1 61259U 24175S   26197.78286211  .00023994  00000+0  71933-3 0  9994
2 61259  53.1599 312.6318 0001064  88.4188 271.6937 15.34386003101245
STARLINK-32474          
1 61260U 24175T   26197.69888071  .00002498  00000+0  85041-4 0  9990
2 61260  53.1618 313.5213 0001437 101.5712 258.5452 15.34397605101221
STARLINK-32447          
1 61261U 24175U   26197.56229855  .00001157  00000+0  45391-4 0  9991
2 61261  53.1615 314.0926 0001207 103.7109 256.4028 15.34388902101209
STARLINK-32446          
1 61262U 24175V   26197.65469095  .00001356  00000+0  51247-4 0  9992
2 61262  53.1607 313.2513 0000694  89.5708 270.5374 15.34393088101223
STARLINK-32174          
1 61509U 24183A   26197.56388174  .00004490  00000+0  14399-3 0  9991
2 61509  53.1581 249.6424 0001224  96.6382 263.4760 15.34386520 99586
STARLINK-32139          
1 61510U 24183B   26197.55651985  .00001816  00000+0  70271-4 0  9996
2 61510  53.1592 263.0971 0001382  88.0411 272.0749 15.31704988 99391
STARLINK-32140          
1 61511U 24183C   26197.47259703  .00001032  00000+0  45012-4 0  9995
2 61511  53.1597 263.2846 0000987  93.7831 266.3283 15.31704678 99383
STARLINK-32201          
1 61512U 24183D   26197.44201736  .00001277  00000+0  48922-4 0  9990
2 61512  53.1589 250.3048 0001050  85.7032 274.4091 15.34394370 99555
STARLINK-32030          
1 61513U 24183E   26197.67796257  .00006243  00000+0  19571-3 0  9998
2 61513  53.1579 263.1405 0001104  87.4258 272.6871 15.34405758 99406
STARLINK-31837          
1 61514U 24183F   26197.60861917 -.00000233  00000+0  42464-5 0  9991
2 61514  53.1614 263.4054 0001164 106.6881 253.4249 15.34388238 99399
STARLINK-32136          
1 61515U 24183G   26197.57052310  .00001047  00000+0  45484-4 0  9994
2 61515  53.1582 263.1839 0001346  83.6083 276.5072 15.31701900 99394
