OBJECT_NAME,OBJECT_ID,EPOCH,MEAN_MOTION,ECCENTRICITY,INCLINATION,RA_OF_ASC_NODE,ARG_OF_PERICENTER,MEAN_ANOMALY,EPHEMERIS_TYPE,CLASSIFICATION_TYPE,NORAD_CAT_ID,ELEMENT_SET_NO,REV_AT_EPOCH,BSTAR,MEAN_MOTION_DOT,MEAN_MOTION_DDOT
STARLINK-32425,2024-171S,2026-07-16T02:40:04.210176,15.31701316,.00012994,53.1609,85.7124,83.7917,276.3232,0,U,61216,999,10203,.35113689E-4,.725E-5,0
STARLINK-32342,2024-171T,2026-07-15T23:18:42.211296,15.31702742,.00014267,53.1608,86.2578,76.2505,283.8656,0,U,61217,999,10292,.35449903E-4,.735E-5,0
STARLINK-32423,2024-171U,2026-07-16T02:33:20.917440,15.31700326,.00014389,53.1611,85.6823,79.8161,280.3002,0,U,61218,999,10294,.18183251E-4,.199E-5,0
STARLINK-32248,2024-171V,2026-07-16T16:25:34.214592,15.31708662,.0002101,53.1605,82.8848,125.9920,234.1276,0,U,61219,999,10303,-.20223E-3,-.6638E-4,0
STARLINK-11300 [DTC],2024-175A,2026-07-16T05:19:49.564416,15.69713435,.0000812,53.1584,142.6736,67.5364,292.5740,0,U,61243,999,10355,-.51863E-5,-.1216E-4,0
STARLINK-11276 [DTC],2024-175B,2026-07-16T20:29:36.134880,15.69688533,.0000869,53.1602,139.5024,93.6166,266.4951,0,U,61244,999,10365,.28007E-4,.2803E-4,0
STARLINK-11280 [DTC],2024-175C,2026-07-16T01:55:16.192992,15.69708916,.00010355,53.1595,143.2124,73.5564,286.5568,0,U,61245,999,10353,.595192E-5,.133E-5,0
STARLINK-11308 [DTC],2024-175D,2026-07-16T03:34:00.870816,15.69706011,.00005734,53.1595,142.9231,54.7172,305.3900,0,U,61246,999,10354,.15190203E-4,.1253E-4,0
STARLINK-11305 [DTC],2024-175E,2026-07-16T03:19:52.946400,15.69715260,.00007694,53.1577,142.8578,91.4911,268.6195,0,U,61247,999,10354,.3068735E-5,-.216E-5,0
STARLINK-11317 [DTC],2024-175F,2026-07-16T06:16:11.353728,15.69712268,.0001017,53.1577,142.1932,110.1723,249.9404,0,U,61248,999,10356,.69699E-5,.256E-5,0
STARLINK-11293 [DTC],2024-175G,2026-07-16T06:09:07.871040,15.69704341,.0000997,53.1582,142.1628,80.1562,279.9568,0,U,61249,999,10356,.1663E-4,.1426E-4,0
STARLINK-11319 [DTC],2024-175J,2026-07-16T13:33:37.948320,15.69663771,.0001222,53.1592,141.2614,86.2034,273.9123,0,U,61251,999,10360,-.53292E-4,-.7027E-4,0
STARLINK-11318 [DTC],2024-175K,2026-07-16T13:26:30.435936,15.69707107,.0000813,53.1603,141.2304,82.8829,277.2281,0,U,61252,999,10477,-.97189E-5,-.1765E-4,0
STARLINK-11311 [DTC],2024-175L,2026-07-16T13:19:26.613696,15.69709322,.000077,53.1594,141.1964,101.3896,258.7208,0,U,61253,999,10481,.12701E-5,-.434E-5,0
STARLINK-11306 [DTC],2024-175M,2026-07-16T20:50:47.518656,15.69706471,.0001029,53.1585,139.5918,92.5569,267.5567,0,U,61254,999,10485,.71391E-5,.276E-5,0
STARLINK-11313 [DTC],2024-175N,2026-07-16T13:05:18.775680,15.69707922,.0001124,53.1599,141.1274,98.4104,261.7041,0,U,61255,999,10360,-.48106E-5,-.1171E-4,0
STARLINK-32431,2024-175P,2026-07-16T18:02:00.146112,15.34401142,.0000907,53.1578,313.1383,87.3485,272.7621,0,U,61256,999,10123,.13497E-3,.4187E-4,0
STARLINK-32432,2024-175Q,2026-07-16T14:45:18.819360,15.34409781,.0000995,53.1615,313.7121,103.9444,256.1670,0,U,61257,999,10121,-.17973E-4,-.983E-5,0
STARLINK-32382,2024-175R,2026-07-16T14:27:08.718336,15.34392386,.0000803,53.1614,313.6331,81.9019,278.2075,0,U,61258,999,10121,.33599E-4,.759E-5,0
STARLINK-32435,2024-175S,2026-07-16T18:47:19.286304,15.34386003,.0001064,53.1599,312.6318,88.4188,271.6937,0,U,61259,999,10124,.71933E-3,.23994E-3,0
STARLINK-32474,2024-175T,2026-07-16T16:46:23.293344,15.34397605,.0001437,53.1618,313.5213,101.5712,258.5452,0,U,61260,999,10122,.85041E-4,.2498E-4,0
STARLINK-32447,2024-175U,2026-07-16T13:29:42.594720,15.34388902,.0001207,53.1615,314.0926,103.7109,256.4028,0,U,61261,999,10120,.45391E-4,.1157E-4,0
STARLINK-32446,2024-175V,2026-07-16T15:42:45.298080,15.34393088,.0000694,53.1607,313.2513,89.5708,270.5374,0,U,61262,999,10122,.51247E-4,.1356E-4,0
STARLINK-32174,2024-183A,2026-07-16T13:31:59.382336,15.34386520,.0001224,53.1581,249.6424,96.6382,263.4760,0,U,61509,999,9958,.14399E-3,.449E-4,0
STARLINK-32139,2024-183B,2026-07-16T13:21:23.315040,15.31704988,.0001382,53.1592,263.0971,88.0411,272.0749,0,U,61510,999,9939,.70271E-4,.1816E-4,0
STARLINK-32140,2024-183C,2026-07-16T11:20:32.383392,15.31704678,.0000987,53.1597,263.2846,93.7831,266.3283,0,U,61511,999,9938,.45012E-4,.1032E-4,0
STARLINK-32201,2024-183D,2026-07-16T10:36:30.299904,15.34394370,.000105,53.1589,250.3048,85.7032,274.4091,0,U,61512,999,9955,.48922E-4,.1277E-4,0
STARLINK-32030,2024-183E,2026-07-16T16:16:15.966048,15.34405758,.0001104,53.1579,263.1405,87.4258,272.6871,0,U,61513,999,9940,.19571E-3,.6243E-4,0
STARLINK-31837,2024-183F,2026-07-16T14:36:24.696288,15.34388238,.0001164,53.1614,263.4054,106.6881,253.4249,0,U,61514,999,9939,.42464E-5,-.233E-5,0
STARLINK-32136,2024-183G,2026-07-16T13:41:33.195840,15.31701900,.0001346,53.1582,263.1839,83.6083,276.5072,0,U,61515,999,9939,.45484E-4,.1047E-4,0
